[
  {
    "OBJECT_NAME": "STARLINK-6153",
    "OBJECT_ID": "23061L",
    "EPOCH": "2025-11-10T17:41:28.984128",
    "MEAN_MOTION": 15.02534061,
    "ECCENTRICITY": 0.0001369,
    "INCLINATION": 43.0036,
    "RA_OF_ASC_NODE": 123.5999,
    "ARG_OF_PERICENTER": 266.1862,
    "MEAN_ANOMALY": 93.8824,
    "EPHEMERIS_TYPE": 0,
    "CLASSIFICATION_TYPE": "U",
    "NORAD_CAT_ID": 56384,
    "ELEMENT_SET_NO": 999,
    "REV_AT_EPOCH": 13886,
    "BSTAR": 2.2181000000000003e-05,
    "MEAN_MOTION_DOT": 9.6e-07,
    "MEAN_MOTION_DDOT": 0.0,
    "TLE_LINE1": "1 56384U 23061L   25314.73714102  .00000096  00000+0  22181-4 0  9990",
    "TLE_LINE2": "2 56384  43.0036 123.5999 0001369 266.1862  93.8824 15.02534061138869",
    "COMMENT": "Grouped by shell and plane from TLE"
  },
  {
    "OBJECT_NAME": "STARLINK-6173",
    "OBJECT_ID": "23061M",
    "EPOCH": "2025-11-10T11:23:21.688512",
    "MEAN_MOTION": 15.02540533,
    "ECCENTRICITY": 0.0001146,
    "INCLINATION": 43.0006,
    "RA_OF_ASC_NODE": 125.068,
    "ARG_OF_PERICENTER": 268.7963,
    "MEAN_ANOMALY": 91.2748,
    "EPHEMERIS_TYPE": 0,
    "CLASSIFICATION_TYPE": "U",
    "NORAD_CAT_ID": 56385,
    "ELEMENT_SET_NO": 999,
    "REV_AT_EPOCH": 13882,
    "BSTAR": 6.8089e-05,
    "MEAN_MOTION_DOT": 7.16e-06,
    "MEAN_MOTION_DDOT": 0.0,
    "TLE_LINE1": "1 56385U 23061M   25314.47455658  .00000716  00000+0  68089-4 0  9996",
    "TLE_LINE2": "2 56385  43.0006 125.0680 0001146 268.7963  91.2748 15.02540533138828",
    "COMMENT": "Grouped by shell and plane from TLE"
  },
  {
    "OBJECT_NAME": "STARLINK-5836",
    "OBJECT_ID": "23061N",
    "EPOCH": "2025-11-10T20:43:21.000864",
    "MEAN_MOTION": 15.02536271,
    "ECCENTRICITY": 0.0001338,
    "INCLINATION": 43.0025,
    "RA_OF_ASC_NODE": 122.8231,
    "ARG_OF_PERICENTER": 267.212,
    "MEAN_ANOMALY": 92.857,
    "EPHEMERIS_TYPE": 0,
    "CLASSIFICATION_TYPE": "U",
    "NORAD_CAT_ID": 56386,
    "ELEMENT_SET_NO": 999,
    "REV_AT_EPOCH": 13888,
    "BSTAR": 5.7524e-05,
    "MEAN_MOTION_DOT": 5.73e-06,
    "MEAN_MOTION_DDOT": 0.0,
    "TLE_LINE1": "1 56386U 23061N   25314.86343751  .00000573  00000+0  57524-4 0  9993",
    "TLE_LINE2": "2 56386  43.0025 122.8231 0001338 267.2120  92.8570 15.02536271138889",
    "COMMENT": "Grouped by shell and plane from TLE"
  },
  {
    "OBJECT_NAME": "STARLINK-6178",
    "OBJECT_ID": "23061P",
    "EPOCH": "2025-11-10T20:28:59.119392",
    "MEAN_MOTION": 15.02540148,
    "ECCENTRICITY": 0.0001533,
    "INCLINATION": 43.0028,
    "RA_OF_ASC_NODE": 122.752,
    "ARG_OF_PERICENTER": 277.9087,
    "MEAN_ANOMALY": 82.1582,
    "EPHEMERIS_TYPE": 0,
    "CLASSIFICATION_TYPE": "U",
    "NORAD_CAT_ID": 56387,
    "ELEMENT_SET_NO": 999,
    "REV_AT_EPOCH": 13888,
    "BSTAR": 0.00011688,
    "MEAN_MOTION_DOT": 1.376e-05,
    "MEAN_MOTION_DDOT": 0.0,
    "TLE_LINE1": "1 56387U 23061P   25314.85346203  .00001376  00000+0  11688-3 0  9990",
    "TLE_LINE2": "2 56387  43.0028 122.7520 0001533 277.9087  82.1582 15.02540148138883",
    "COMMENT": "Grouped by shell and plane from TLE"
  },
  {
    "OBJECT_NAME": "STARLINK-6176",
    "OBJECT_ID": "23061Q",
    "EPOCH": "2025-11-11T03:49:24.612960",
    "MEAN_MOTION": 15.02535398,
    "ECCENTRICITY": 0.0001082,
    "INCLINATION": 43.003,
    "RA_OF_ASC_NODE": 121.5951,
    "ARG_OF_PERICENTER": 273.9089,
    "MEAN_ANOMALY": 86.1629,
    "EPHEMERIS_TYPE": 0,
    "CLASSIFICATION_TYPE": "U",
    "NORAD_CAT_ID": 56388,
    "ELEMENT_SET_NO": 999,
    "REV_AT_EPOCH": 13892,
    "BSTAR": 8.2736e-05,
    "MEAN_MOTION_DOT": 9.14e-06,
    "MEAN_MOTION_DDOT": 0.0,
    "TLE_LINE1": "1 56388U 23061Q   25315.15931265  .00000914  00000+0  82736-4 0  9993",
    "TLE_LINE2": "2 56388  43.0030 121.5951 0001082 273.9089  86.1629 15.02535398138921",
    "COMMENT": "Grouped by shell and plane from TLE"
  },
  {
    "OBJECT_NAME": "STARLINK-6145",
    "OBJECT_ID": "23061R",
    "EPOCH": "2025-11-11T04:46:47.297856",
    "MEAN_MOTION": 15.02538118,
    "ECCENTRICITY": 0.0001618,
    "INCLINATION": 43.0043,
    "RA_OF_ASC_NODE": 121.0436,
    "ARG_OF_PERICENTER": 273.8076,
    "MEAN_ANOMALY": 86.2581,
    "EPHEMERIS_TYPE": 0,
    "CLASSIFICATION_TYPE": "U",
    "NORAD_CAT_ID": 56389,
    "ELEMENT_SET_NO": 999,
    "REV_AT_EPOCH": 13893,
    "BSTAR": 0.00015922,
    "MEAN_MOTION_DOT": 1.948e-05,
    "MEAN_MOTION_DDOT": 0.0,
    "TLE_LINE1": "1 56389U 23061R   25315.19915854  .00001948  00000+0  15922-3 0  9994",
    "TLE_LINE2": "2 56389  43.0043 121.0436 0001618 273.8076  86.2581 15.02538118138931",
    "COMMENT": "Grouped by shell and plane from TLE"
  },
  {
    "OBJECT_NAME": "STARLINK-6298",
    "OBJECT_ID": "23061T",
    "EPOCH": "2025-11-10T20:38:27.081024",
    "MEAN_MOTION": 15.02634481,
    "ECCENTRICITY": 0.0002159,
    "INCLINATION": 43.0013,
    "RA_OF_ASC_NODE": 122.7962,
    "ARG_OF_PERICENTER": 276.2917,
    "MEAN_ANOMALY": 83.768,
    "EPHEMERIS_TYPE": 0,
    "CLASSIFICATION_TYPE": "U",
    "NORAD_CAT_ID": 56391,
    "ELEMENT_SET_NO": 999,
    "REV_AT_EPOCH": 13888,
    "BSTAR": 0.00050332,
    "MEAN_MOTION_DOT": 6.619e-05,
    "MEAN_MOTION_DDOT": 0.0,
    "TLE_LINE1": "1 56391U 23061T   25314.86003566  .00006619  00000+0  50332-3 0  9992",
    "TLE_LINE2": "2 56391  43.0013 122.7962 0002159 276.2917  83.7680 15.02634481138881",
    "COMMENT": "Grouped by shell and plane from TLE"
  },
  {
    "OBJECT_NAME": "STARLINK-6303",
    "OBJECT_ID": "23061V",
    "EPOCH": "2025-11-11T04:32:23.741088",
    "MEAN_MOTION": 15.02540396,
    "ECCENTRICITY": 0.0001487,
    "INCLINATION": 43.0025,
    "RA_OF_ASC_NODE": 120.967,
    "ARG_OF_PERICENTER": 270.3311,
    "MEAN_ANOMALY": 89.736,
    "EPHEMERIS_TYPE": 0,
    "CLASSIFICATION_TYPE": "U",
    "NORAD_CAT_ID": 56393,
    "ELEMENT_SET_NO": 999,
    "REV_AT_EPOCH": 13893,
    "BSTAR": 0.00013918,
    "MEAN_MOTION_DOT": 1.677e-05,
    "MEAN_MOTION_DDOT": 0.0,
    "TLE_LINE1": "1 56393U 23061V   25315.18916367  .00001677  00000+0  13918-3 0  9990",
    "TLE_LINE2": "2 56393  43.0025 120.9670 0001487 270.3311  89.7360 15.02540396138936",
    "COMMENT": "Grouped by shell and plane from TLE"
  },
  {
    "OBJECT_NAME": "STARLINK-5340",
    "OBJECT_ID": "23065D",
    "EPOCH": "2025-11-10T20:25:55.005312",
    "MEAN_MOTION": 15.02530012,
    "ECCENTRICITY": 0.000147,
    "INCLINATION": 43.0026,
    "RA_OF_ASC_NODE": 123.4672,
    "ARG_OF_PERICENTER": 275.3,
    "MEAN_ANOMALY": 84.7675,
    "EPHEMERIS_TYPE": 0,
    "CLASSIFICATION_TYPE": "U",
    "NORAD_CAT_ID": 56506,
    "ELEMENT_SET_NO": 999,
    "REV_AT_EPOCH": 13889,
    "BSTAR": 8.1319e-05,
    "MEAN_MOTION_DOT": 8.95e-06,
    "MEAN_MOTION_DDOT": 0.0,
    "TLE_LINE1": "1 56506U 23065D   25314.85133108  .00000895  00000+0  81319-4 0  9999",
    "TLE_LINE2": "2 56506  43.0026 123.4672 0001470 275.3000  84.7675 15.02530012138898",
    "COMMENT": "Grouped by shell and plane from TLE"
  },
  {
    "OBJECT_NAME": "STARLINK-6307",
    "OBJECT_ID": "23065AC",
    "EPOCH": "2025-11-11T04:13:23.367360",
    "MEAN_MOTION": 15.02529491,
    "ECCENTRICITY": 0.0001415,
    "INCLINATION": 43.0038,
    "RA_OF_ASC_NODE": 121.5991,
    "ARG_OF_PERICENTER": 271.7859,
    "MEAN_ANOMALY": 88.2821,
    "EPHEMERIS_TYPE": 0,
    "CLASSIFICATION_TYPE": "U",
    "NORAD_CAT_ID": 56529,
    "ELEMENT_SET_NO": 999,
    "REV_AT_EPOCH": 13894,
    "BSTAR": 0.00026565,
    "MEAN_MOTION_DOT": 3.386e-05,
    "MEAN_MOTION_DDOT": 0.0,
    "TLE_LINE1": "1 56529U 23065AC  25315.17596490  .00003386  00000+0  26565-3 0  9996",
    "TLE_LINE2": "2 56529  43.0038 121.5991 0001415 271.7859  88.2821 15.02529491138947",
    "COMMENT": "Grouped by shell and plane from TLE"
  },
  {
    "OBJECT_NAME": "STARLINK-6280",
    "OBJECT_ID": "23065AE",
    "EPOCH": "2025-11-10T21:45:39.407040",
    "MEAN_MOTION": 15.02534003,
    "ECCENTRICITY": 0.0001264,
    "INCLINATION": 43.0014,
    "RA_OF_ASC_NODE": 123.0167,
    "ARG_OF_PERICENTER": 269.2606,
    "MEAN_ANOMALY": 90.8091,
    "EPHEMERIS_TYPE": 0,
    "CLASSIFICATION_TYPE": "U",
    "NORAD_CAT_ID": 56531,
    "ELEMENT_SET_NO": 999,
    "REV_AT_EPOCH": 13890,
    "BSTAR": 8.041700000000001e-05,
    "MEAN_MOTION_DOT": 8.83e-06,
    "MEAN_MOTION_DDOT": 0.0,
    "TLE_LINE1": "1 56531U 23065AE  25314.90670610  .00000883  00000+0  80417-4 0  9992",
    "TLE_LINE2": "2 56531  43.0014 123.0167 0001264 269.2606  90.8091 15.02534003138909",
    "COMMENT": "Grouped by shell and plane from TLE"
  },
  {
    "OBJECT_NAME": "STARLINK-6319",
    "OBJECT_ID": "23065AF",
    "EPOCH": "2025-11-10T20:24:18.919008",
    "MEAN_MOTION": 15.02536601,
    "ECCENTRICITY": 0.0001314,
    "INCLINATION": 43.0022,
    "RA_OF_ASC_NODE": 123.4537,
    "ARG_OF_PERICENTER": 271.5898,
    "MEAN_ANOMALY": 88.4794,
    "EPHEMERIS_TYPE": 0,
    "CLASSIFICATION_TYPE": "U",
    "NORAD_CAT_ID": 56532,
    "ELEMENT_SET_NO": 999,
    "REV_AT_EPOCH": 13889,
    "BSTAR": 5.6204e-05,
    "MEAN_MOTION_DOT": 5.56e-06,
    "MEAN_MOTION_DDOT": 0.0,
    "TLE_LINE1": "1 56532U 23065AF  25314.85021897  .00000556  00000+0  56204-4 0  9998",
    "TLE_LINE2": "2 56532  43.0022 123.4537 0001314 271.5898  88.4794 15.02536601138896",
    "COMMENT": "Grouped by shell and plane from TLE"
  },
  {
    "OBJECT_NAME": "STARLINK-6310",
    "OBJECT_ID": "23065AG",
    "EPOCH": "2025-11-11T03:58:58.658880",
    "MEAN_MOTION": 15.02537482,
    "ECCENTRICITY": 0.0001093,
    "INCLINATION": 43.0016,
    "RA_OF_ASC_NODE": 121.522,
    "ARG_OF_PERICENTER": 273.6041,
    "MEAN_ANOMALY": 86.4676,
    "EPHEMERIS_TYPE": 0,
    "CLASSIFICATION_TYPE": "U",
    "NORAD_CAT_ID": 56533,
    "ELEMENT_SET_NO": 999,
    "REV_AT_EPOCH": 13894,
    "BSTAR": 6.1454e-05,
    "MEAN_MOTION_DOT": 6.27e-06,
    "MEAN_MOTION_DDOT": 0.0,
    "TLE_LINE1": "1 56533U 23065AG  25315.16595670  .00000627  00000+0  61454-4 0  9991",
    "TLE_LINE2": "2 56533  43.0016 121.5220 0001093 273.6041  86.4676 15.02537482138946",
    "COMMENT": "Grouped by shell and plane from TLE"
  }
]